NORAD_CAT_ID,OBJECT_NAME,OBJECT_TYPE,EPOCH,MEAN_MOTION,ECCENTRICITY,INCLINATION,RA_OF_ASC_NODE,ARG_OF_PERICENTER,MEAN_ANOMALY,BSTAR,MEAN_MOTION_DOT,MEAN_MOTION_DDOT,TLE_LINE0,TLE_LINE1,TLE_LINE2,SEMIMAJOR_AXIS,PERIOD,APOGEE,PERIGEE,DECAYED
55639.0,STARLINK-5508,PAYLOAD,2023-10-21 05:21:22,14.98330154,0.0002742,70.002,219.2201,271.6528,88.4317,-5.7747e-05,-7.82e-06,0.0,0 STARLINK-5508,1 55639U 23021M   23294.22318060 -.00000782  00000-0 -57747-4 0  9991,2 55639  70.0020 219.2201 0002742 271.6528  88.4317 14.98330154 38103,6950.192,96.107,573.963,570.152,0.0
55639.0,STARLINK-5508,PAYLOAD,2023-10-21 19:46:34,14.98336524,0.000281,70.0018,217.706,275.695,84.3889,0.00013066,1.467e-05,0.0,0 STARLINK-5508,1 55639U 23021M   23294.82400935  .00001467  00000-0  13066-3 0  9994,2 55639  70.0018 217.7060 0002810 275.6950  84.3889 14.98336524 38190,6950.173,96.107,573.991,570.085,0.0
55639.0,STARLINK-5508,PAYLOAD,2023-10-21 22:58:50,14.98339188,0.0002364,70.0024,217.3694,271.946,88.1428,0.00014577,1.647e-05,0.0,0 STARLINK-5508,1 55639U 23021M   23294.95752695  .00001647  00000-0  14577-3 0  9999,2 55639  70.0024 217.3694 0002364 271.9460  88.1428 14.98339188 38511,6950.164,96.106,573.672,570.386,0.0
55639.0,STARLINK-5508,PAYLOAD,2023-10-22 03:47:14,14.98343839,0.0002629,70.0019,216.8639,280.3446,79.7416,0.00020462,2.35e-05,0.0,0 STARLINK-5508,1 55639U 23021M   23295.15780128  .00002350  00000-0  20462-3 0  9996,2 55639  70.0019 216.8639 0002629 280.3446  79.7416 14.98343839 38241,6950.15,96.106,573.842,570.188,0.0
55639.0,STARLINK-5508,PAYLOAD,2023-10-22 05:23:21,14.98346353,0.0002378,70.0021,216.6958,270.1775,89.9111,0.00017645,2.014e-05,0.0,0 STARLINK-5508,1 55639U 23021M   23295.22455927  .00002014  00000-0  17645-3 0  9996,2 55639  70.0021 216.6958 0002378 270.1775  89.9111 14.98346353 38552,6950.142,96.106,573.66,570.355,0.0
55639.0,STARLINK-5508,PAYLOAD,2023-10-22 19:48:36,14.98315496,0.0002834,70.0021,215.1813,259.4888,100.5952,-5.2983e-05,-7.25e-06,0.0,0 STARLINK-5508,1 55639U 23021M   23295.82542432 -.00000725  00000-0 -52983-4 0  9994,2 55639  70.0021 215.1813 0002834 259.4888 100.5952 14.98315496 38342,6950.238,96.108,574.072,570.133,0.0
55639.0,STARLINK-5508,PAYLOAD,2023-10-22 21:24:44,14.98315149,0.0002835,70.0017,215.0134,259.5552,100.5288,-5.9283e-05,-8e-06,0.0,0 STARLINK-5508,1 55639U 23021M   23295.89218516 -.00000800  00000-0 -59283-4 0  9998,2 55639  70.0017 215.0134 0002835 259.5552 100.5288 14.98315149 38653,6950.239,96.108,574.074,570.133,0.0
55639.0,STARLINK-5508,PAYLOAD,2023-10-23 19:50:37,14.9833303,0.0002513,70.0021,212.6558,253.3762,106.7121,-0.00015922,-1.992e-05,0.0,0 STARLINK-5508,1 55639U 23021M   23296.82682013 -.00001992  00000-0 -15922-3 0  9993,2 55639  70.0021 212.6558 0002513 253.3762 106.7121 14.98333030 38494,6950.184,96.107,573.795,570.302,0.0
55639.0,STARLINK-5508,PAYLOAD,2023-10-23 21:26:45,14.98349457,0.0002523,70.002,212.4877,252.105,107.9835,-0.00039823,-4.844e-05,0.0,0 STARLINK-5508,1 55639U 23021M   23296.89357702 -.00004844  00000-0 -39823-3 0  9999,2 55639  70.0020 212.4877 0002523 252.1050 107.9835 14.98349457 38803,6950.133,96.106,573.751,570.244,0.0
55639.0,STARLINK-5508,PAYLOAD,2023-10-24 11:52:00,14.98295152,0.0002553,70.0021,210.9726,260.5727,99.5143,-0.00062253,-7.506e-05,0.0,0 STARLINK-5508,1 55639U 23021M   23297.49445130 -.00007506  00000-0 -62253-3 0  9990,2 55639  70.0021 210.9726 0002553 260.5727  99.5143 14.98295152 38593,6950.301,96.109,573.94,570.391,0.0
55639.0,STARLINK-5508,PAYLOAD,2023-10-25 21:30:47,14.98330159,0.00027,70.001,207.4374,258.9388,101.1467,-1.1012e-05,-2.24e-06,0.0,0 STARLINK-5508,1 55639U 23021M   23298.89637840 -.00000224  00000-0 -11012-4 0  9994,2 55639  70.0010 207.4374 0002700 258.9388 101.1467 14.98330159 38809,6950.192,96.107,573.934,570.181,0.0
55639.0,STARLINK-5508,PAYLOAD,2023-10-26 03:55:19,14.98332581,0.0002732,70.0008,206.7655,260.5156,99.5694,7.093e-05,7.54e-06,0.0,0 STARLINK-5508,1 55639U 23021M   23299.16341441  .00000754  00000-0  70930-4 0  9994,2 55639  70.0008 206.7655 0002732 260.5156  99.5694 14.98332581 39148,6950.185,96.107,573.949,570.151,0.0
55639.0,STARLINK-5508,PAYLOAD,2023-10-26 21:32:47,14.98335363,0.0002732,70.0009,204.9141,263.4352,96.6496,2.5147e-05,2.07e-06,0.0,0 STARLINK-5508,1 55639U 23021M   23299.89777123  .00000207  00000-0  25147-4 0  9997,2 55639  70.0009 204.9141 0002732 263.4352  96.6496 14.98335363 39250,6950.176,96.107,573.94,570.143,0.0
55639.0,STARLINK-5508,PAYLOAD,2023-10-27 03:57:18,14.98344112,0.0002618,70.0011,204.2415,262.0416,98.0446,8.5037e-05,9.22e-06,0.0,0 STARLINK-5508,1 55639U 23021M   23300.16480232  .00000922  00000-0  85037-4 0  9990,2 55639  70.0011 204.2415 0002618 262.0416  98.0446 14.98344112 38992,6950.149,96.106,573.834,570.195,0.0
55639.0,STARLINK-5508,PAYLOAD,2023-10-27 21:34:48,14.9832695,0.0002315,70.0027,202.3922,257.0511,103.039,-1.8624e-05,-3.15e-06,0.0,0 STARLINK-5508,1 55639U 23021M   23300.89917428 -.00000315  00000-0 -18624-4 0  9998,2 55639  70.0027 202.3922 0002315 257.0511 103.0390 14.98326950 39407,6950.202,96.107,573.676,570.458,0.0
55639.0,STARLINK-5508,PAYLOAD,2023-10-28 00:47:05,14.98325673,0.0002221,70.0029,202.0559,255.6255,104.4658,-3.0486e-05,-4.57e-06,0.0,0 STARLINK-5508,1 55639U 23021M   23301.03269686 -.00000457  00000-0 -30486-4 0  9998,2 55639  70.0029 202.0559 0002221 255.6255 104.4658 14.98325673 39129,6950.206,96.107,573.615,570.528,0.0
55639.0,STARLINK-5508,PAYLOAD,2023-10-28 10:23:53,14.98337798,0.0002004,70.003,201.0434,266.7787,93.3143,-0.00028412,-3.482e-05,0.0,0 STARLINK-5508,1 55639U 23021M   23301.43325668 -.00003482  00000-0 -28412-3 0  9991,2 55639  70.0030 201.0434 0002004 266.7787  93.3143 14.98337798 39489,6950.169,96.106,573.427,570.641,0.0
55639.0,STARLINK-5508,PAYLOAD,2023-10-28 23:12:57,14.9833438,0.0002552,70.001,199.697,260.014,100.0732,-4.343e-05,-6.11e-06,0.0,0 STARLINK-5508,1 55639U 23021M   23301.96733088 -.00000611  00000-0 -43430-4 0  9997,2 55639  70.0010 199.6970 0002552 260.0140 100.0732 14.98334380 39565,6950.179,96.107,573.818,570.271,0.0
55639.0,STARLINK-5508,PAYLOAD,2023-10-29 02:25:13,14.98335864,0.0002488,70.0012,199.3598,264.2731,95.8144,-6.1615e-06,-1.66e-06,0.0,0 STARLINK-5508,1 55639U 23021M   23302.10084814 -.00000166  00000-0 -61615-5 0  9991,2 55639  70.0012 199.3598 0002488 264.2731  95.8144 14.98335864 39285,6950.175,96.107,573.769,570.311,0.0
55639.0,STARLINK-5508,PAYLOAD,2023-10-29 10:25:53,14.98336555,0.0002322,70.0016,198.518,271.4887,88.6006,-0.00019882,-2.465e-05,0.0,0 STARLINK-5508,1 55639U 23021M   23302.43465261 -.00002465  00000-0 -19882-3 0  9997,2 55639  70.0016 198.5180 0002322 271.4887  88.6006 14.98336555 39630,6950.173,96.107,573.651,570.424,0.0
55639.0,STARLINK-5508,PAYLOAD,2023-10-29 21:38:50,14.98323188,0.0002566,70.0012,197.3403,271.0138,89.0727,-1.6942e-05,-2.95e-06,0.0,0 STARLINK-5508,1 55639U 23021M   23302.90197788 -.00000295  00000-0 -16942-4 0  9999,2 55639  70.0012 197.3403 0002566 271.0138  89.0727 14.98323188 39404,6950.214,96.107,573.862,570.296,0.0
55639.0,STARLINK-5508,PAYLOAD,2023-10-30 21:40:51,14.98325175,0.0002543,70.0015,194.815,274.265,85.8219,-1.6326e-05,-2.88e-06,0.0,0 STARLINK-5508,1 55639U 23021M   23303.90337888 -.00000288  00000-0 -16326-4 0  9995,2 55639  70.0015 194.8150 0002543 274.2650  85.8219 14.98325175 39854,6950.208,96.107,573.84,570.305,0.0
55639.0,STARLINK-5508,PAYLOAD,2023-10-31 02:29:15,14.98325171,0.0002707,70.0017,194.3098,260.0875,99.9979,2.6126e-05,2.19e-06,0.0,0 STARLINK-5508,1 55639U 23021M   23304.10365673  .00000219  00000-0  26126-4 0  9992,2 55639  70.0017 194.3098 0002707 260.0875  99.9979 14.98325171 39581,6950.208,96.107,573.954,570.191,0.0
55639.0,STARLINK-5508,PAYLOAD,2023-10-31 10:29:55,14.98333871,0.0002924,70.0018,193.4686,270.8879,89.1945,-5.7772e-05,-7.82e-06,0.0,0 STARLINK-5508,1 55639U 23021M   23304.43745331 -.00000782  00000-0 -57772-4 0  9999,2 55639  70.0018 193.4686 0002924 270.8879  89.1945 14.98333871 39938,6950.181,96.107,574.078,570.014,0.0
55639.0,STARLINK-5508,PAYLOAD,2023-10-31 21:42:52,14.9832346,0.0002579,70.0014,192.2907,257.5591,102.528,2.7577e-05,2.36e-06,0.0,0 STARLINK-5508,1 55639U 23021M   23304.90477849  .00000236  00000-0  27577-4 0  9999,2 55639  70.0014 192.2907 0002579 257.5591 102.5280 14.98323460 40001,6950.213,96.107,573.871,570.286,0.0
55639.0,STARLINK-5508,PAYLOAD,2023-11-01 02:31:16,14.98336491,0.0002981,70.001,191.7859,266.594,93.4878,0.00011879,1.325e-05,0.0,0 STARLINK-5508,1 55639U 23021M   23305.10504699  .00001325  00000-0  11879-3 0  9993,2 55639  70.0010 191.7859 0002981 266.5940  93.4878 14.98336491 39739,6950.173,96.107,574.11,569.966,0.0
55639.0,STARLINK-5508,PAYLOAD,2023-11-01 10:31:56,14.9833432,0.0002516,70.0026,190.9442,286.8966,73.1917,8.1494e-06,4e-08,0.0,0 STARLINK-5508,1 55639U 23021M   23305.43885305  .00000004  00000-0  81494-5 0  9990,2 55639  70.0026 190.9442 0002516 286.8966  73.1917 14.98334320 40080,6950.18,96.107,573.793,570.296,0.0
55639.0,STARLINK-5508,PAYLOAD,2023-11-01 20:08:45,14.9832063,0.0002383,70.0017,189.9344,273.7889,86.2998,0.00021243,2.442e-05,0.0,0 STARLINK-5508,1 55639U 23021M   23305.83941610  .00002442  00000-0  21243-3 0  9998,2 55639  70.0017 189.9344 0002383 273.7889  86.2998 14.98320630 39845,6950.222,96.108,573.743,570.431,0.0
55639.0,STARLINK-5508,PAYLOAD,2023-11-01 21:44:53,14.98329387,0.000275,70.001,189.7659,271.8925,88.1919,2.6692e-05,2.26e-06,0.0,0 STARLINK-5508,1 55639U 23021M   23305.90617359  .00000226  00000-0  26692-4 0  9998,2 55639  70.0010 189.7659 0002750 271.8925  88.1919 14.98329387 40151,6950.195,96.107,573.971,570.148,0.0
55639.0,STARLINK-5508,PAYLOAD,2023-11-02 02:33:17,14.98332339,0.0002694,70.0012,189.2614,274.226,85.8591,5.3422e-05,5.45e-06,0.0,0 STARLINK-5508,1 55639U 23021M   23306.10645087  .00000545  00000-0  53422-4 0  9995,2 55639  70.0012 189.2614 0002694 274.2260  85.8591 14.98332339 39884,6950.186,96.107,573.923,570.178,0.0
